[{"OBJECT_NAME":"STARLINK-30182","OBJECT_ID":"2023-102J","EPOCH":"2026-03-09T22:00:01.999584","MEAN_MOTION":15.17692309,"ECCENTRICITY":0.00017334,"INCLINATION":43.0001,"RA_OF_ASC_NODE":246.596,"ARG_OF_PERICENTER":271.5021,"MEAN_ANOMALY":59.9842,"EPHEMERIS_TYPE":0,"CLASSIFICATION_TYPE":"U","NORAD_CAT_ID":57412,"ELEMENT_SET_NO":999,"REV_AT_EPOCH":577,"BSTAR":0.0061388079,"MEAN_MOTION_DOT":0.00128052,"MEAN_MOTION_DDOT":0},{"OBJECT_NAME":"TRANSPORTER-15 OBJECT M","OBJECT_ID":"2025-276M","EPOCH":"2026-03-09T17:11:37.076640","MEAN_MOTION":15.2015215,"ECCENTRICITY":0.00045268,"INCLINATION":97.4249,"RA_OF_ASC_NODE":144.0134,"ARG_OF_PERICENTER":15.0949,"MEAN_ANOMALY":345.0421,"EPHEMERIS_TYPE":0,"CLASSIFICATION_TYPE":"U","NORAD_CAT_ID":66677,"ELEMENT_SET_NO":999,"REV_AT_EPOCH":1532,"BSTAR":0.00078021993,"MEAN_MOTION_DOT":0.0001684,"MEAN_MOTION_DDOT":0}]
